[
    {
        "Altitude(m)": 605459.0649674991,
        "Argument of Periapsis(deg)": 0.0,
        "Eccentricity": 0.0,
        "Inclination(deg)": 60.0,
        "Latitude(deg)": 27.988331441495117,
        "Longitude(deg)": 117.7986025895718,
        "Mean Anomaly(deg)": 32.727299999999985,
        "RAAN(deg)": 200.0,
        "Satellite Name": "Test1 882",
        "Satellite Number": 882,
        "Semi-Major Axis(m)": 6980739.136638005,
        "Time(s)": 0
    },
    {
        "Altitude(m)": 605535.8563527248,
        "Argument of Periapsis(deg)": 0.00010418945913296404,
        "Eccentricity": 0.0,
        "Inclination(deg)": 60.0,
        "Latitude(deg)": 28.501460726706814,
        "Longitude(deg)": 118.15554844706882,
        "Mean Anomaly(deg)": 33.34740614546184,
        "RAAN(deg)": 199.99957995086027,
        "Satellite Name": "Test1 882",
        "Satellite Number": 882,
        "Semi-Major Axis(m)": 6980739.136638005,
        "Time(s)": 10
    }
]